COSMOS 2426 (717)       
1 29671U 06062B   20032.59871769  .00000030  00000-0  10000-3 0  9995
2 29671  65.0198 272.5378 0019681 171.1466 276.5956  2.12962280101982
COSMOS 2433 (720)       
1 32275U 07052A   20033.47371671 -.00000014  00000-0  10000-3 0  9997
2 32275  65.9377  33.4516 0005540 262.8723 206.2644  2.13104354 95511
COSMOS 2432 (719)       
1 32276U 07052B   20033.37084997 -.00000014  00000-0  10000-3 0  9999
2 32276  65.9509  33.5422 0012182 318.2839  22.4200  2.13103609 95507
COSMOS 2434 (721)       
1 32393U 07065A   20033.25289880  .00000040  00000-0  00000-0 0  9992
2 32393  64.6245 271.0944 0003867  78.8401 108.3154  2.13103001 94217
COSMOS 2436 (723)       
1 32395U 07065C   20033.49375726  .00000042  00000-0  10000-3 0  9991
2 32395  64.6342 271.1339 0015374 344.4504 162.0066  2.13280827 94152
COSMOS 2456 (730)       
1 36111U 09070A   20033.35516259  .00000019  00000-0  00000-0 0  9992
2 36111  64.2165 150.7516 0002966 337.3264 101.6626  2.13102685 78885
COSMOS 2457 (733)       
1 36112U 09070B   20033.49598527  .00000018  00000-0  00000-0 0  9995
2 36112  64.1989 150.6423 0006220 155.5184 155.4375  2.13101416 78882
COSMOS 2459 (731)       
1 36400U 10007A   20033.31456156 -.00000015  00000-0  10000-3 0  9991
2 36400  65.8422  32.4443 0026366 343.9363 218.0446  2.13105082 77232
COSMOS 2461 (735)       
1 36401U 10007B   20033.40952206 -.00000015  00000-0  10000-3 0  9999
2 36401  65.8350  32.4135 0004642  47.7031 136.7685  2.13101926 77239
COSMOS 2460 (732)       
1 36402U 10007C   20033.31418622 -.00000015  00000-0  10000-3 0  9999
2 36402  65.8254  32.3762 0002717 272.9482 237.7861  2.13101362 77233
COSMOS 2464 (736)       
1 37139U 10041C   20033.33107106  .00000041  00000-0  00000-0 0  9993
2 37139  64.2256 270.5991 0027553  12.5080  99.2316  2.13100735 73306
COSMOS 2474 (742)       
1 37829U 11055A   20033.30391069  .00000022  00000-0  00000-0 0  9994
2 37829  64.5367 151.7204 0008358 241.3758  13.6681  2.13101794 64874
COSMOS 2476 (744)       
1 37867U 11064A   20033.47033390  .00000021  00000-0  00000-0 0  9993
2 37867  64.5180 151.7619 0018166 235.1766 193.7359  2.13101821 64230
COSMOS 2477 (745)       
1 37868U 11064B   20033.50255738  .00000021  00000-0  00000-0 0  9990
2 37868  64.5251 151.8163 0016164 236.4902  35.7228  2.13101898 64185
COSMOS 2475 (743)       
1 37869U 11064C   20033.29282083  .00000022  00000-0  00000-0 0  9991
2 37869  64.5324 151.8233 0019510 260.5155 168.0821  2.13101804 64198
COSMOS 2485 (747)       
1 39155U 13019A   20033.46991764  .00000021  00000-0  00000-0 0  9994
2 39155  64.6853 152.0012 0018777 230.0834 243.1479  2.13101779 52703
COSMOS 2492 (754)       
1 39620U 14012A   20033.45917406 -.00000015  00000-0  10000-3 0  9993
2 39620  65.7145  32.1730 0015520 317.7650 182.3210  2.13103293 45659
COSMOS 2500 (755)       
1 40001U 14032A   20033.25523362 -.00000016  00000-0  00000-0 0  9999
2 40001  65.6565  32.1057 0007817 225.6834 338.7951  2.13102540 43866
COSMOS 2501 (702K)      
1 40315U 14075A   20033.48712301  .00000040  00000-0  00000-0 0  9998
2 40315  63.9434 271.5907 0015123 207.7495 330.6890  2.13098469 40275
COSMOS 2514 (751)       
1 41330U 16008A   20033.45651039 -.00000016  00000-0  00000-0 0  9995
2 41330  65.4587  32.0052 0011553 227.3290 313.7283  2.13102964 31032
COSMOS 2516 (753)       
1 41554U 16032A   20033.47619306  .00000040  00000-0  00000-0 0  9999
2 41554  64.1668 271.6225 0011142 219.6111 227.2180  2.13101714 28649
COSMOS 2522 (752)       
1 42939U 17055A   20033.32915788  .00000039  00000-0  00000-0 0  9998
2 42939  64.3988 271.7693 0006219 256.3111 304.2681  2.13102010 18394
COSMOS 2527 (756)       
1 43508U 18053A   20033.52475281  .00000021  00000-0  00000-0 0  9992
2 43508  64.8511 151.8203 0006618 222.8524 159.3910  2.13102542 12699
COSMOS 2529 (757)       
1 43687U 18086A   20033.29089634  .00000038  00000-0  00000+0 0  9990
2 43687  64.6132 271.8524 0009144 280.4115 206.4514  2.13102062  9705
COSMOS 2534 (758)       
1 44299U 19030A   20032.12043532  .00000027  00000-0  00000+0 0  9996
2 44299  64.6825 271.6943 0013000 297.1332 146.8968  2.13101881  5321
